NAVSTAR 68 (USA 242)    
1 39166U 13023A   26090.90349851 -.00000034  00000+0  00000+0 0  9996
2 39166  54.5658 272.1198 0141962  50.3418 310.8851  2.00563989 94331
INSAT-3D                
1 39216U 13038B   26091.49227459 -.00000347  00000+0  00000+0 0  9999
2 39216   1.7286  83.5034 0001482 256.8368 156.2255  1.00267639 46317
NAVSTAR 69 (USA 248)    
1 39533U 14008A   26091.40192326  .00000036  00000+0  00000+0 0  9998
2 39533  53.6402 152.4525 0083202 229.3061 130.0456  2.00554869 88146
LUCH-5V                 
1 39727U 14023A   26091.48534124 -.00000274  00000+0  00000+0 0  9999
2 39727   4.9457  70.4945 0002684 310.6243  78.1887  1.00271218 43599
NAVSTAR 70 (USA 251)    
1 39741U 14026A   26091.17999505 -.00000088  00000+0  00000+0 0  9995
2 39741  56.5333 334.5171 0039432 325.9389  33.8581  2.00566702 86993
NAVSTAR 71 (USA 256)    
1 40105U 14045A   26091.26927995  .00000021  00000+0  00000+0 0  9992
2 40105  55.3019  91.5273 0031386 119.8384 240.4974  2.00553375 84537
GSAT0201 (GALILEO 5)    
1 40128U 14050A   26088.64703566 -.00000033  00000+0  00000+0 0  9991
2 40128  48.9626 276.6910 1661829 176.2929 185.1058  1.85519989 76840
GSAT0202 (GALILEO 6)    
1 40129U 14050B   26088.90285646 -.00000035  00000+0  00000+0 0  9997
2 40129  48.9800 275.7652 1662861 177.0373 184.0793  1.85520679 79011
NAVSTAR 72 (USA 258)    
1 40294U 14068A   26091.14521603 -.00000095  00000+0  00000+0 0  9991
2 40294  56.9382  33.9232 0064104  68.3135 292.3462  2.00571540 83662
COSMOS 2501 [GLONASS-K] 
1 40315U 14075A   26084.30325579  .00000001  00000+0  00000+0 0  9993
2 40315  63.6158 193.2737 0021182 207.3153 152.5805  2.13101287 88064
NAVSTAR 73 (USA 260)    
1 40534U 15013A   26090.77939593 -.00000032  00000+0  00000+0 0  9999
2 40534  53.1801 207.3783 0108824  39.9330 320.8357  2.00555949 80270
GSAT0203 (GALILEO 7)    
1 40544U 15017A   26086.67777373 -.00000097  00000+0  00000+0 0  9995
2 40544  56.8123 343.8202 0003036 318.8222  41.1887  1.70475469 67818
GSAT0204 (GALILEO 8)    
1 40545U 15017B   26090.45287602 -.00000099  00000+0  00000+0 0  9990
2 40545  56.8177 343.7349 0003307 290.1581  69.8477  1.70475570 30927
NAVSTAR 74 (USA 262)    
1 40730U 15033A   26090.93941137 -.00000035  00000+0  00000+0 0  9997
2 40730  54.0443 270.2690 0114899  29.5248 331.0975  2.00560219 78440
METEOSAT-11 (MSG-4)     
1 40732U 15034A   26091.32578726  .00000055  00000+0  00000+0 0  9995
2 40732   3.0084  71.5120 0001761 284.9559 319.7610  1.00274921  6443
GSAT0205 (GALILEO 9)    
1 40889U 15045A   26088.75324581 -.00000029  00000+0  00000+0 0  9993
2 40889  54.9725 223.8882 0003985 271.0608  88.8305  1.67410692 65633
GSAT0206 (GALILEO 10)   
1 40890U 15045B   26090.44154137 -.00000028  00000+0  00000+0 0  9991
2 40890  54.9707 223.7491 0002917  47.7837 312.1782  1.70473851 65717
